NORAD_CAT_ID,OBJECT_NAME,OBJECT_TYPE,EPOCH,MEAN_MOTION,ECCENTRICITY,INCLINATION,RA_OF_ASC_NODE,ARG_OF_PERICENTER,MEAN_ANOMALY,BSTAR,MEAN_MOTION_DOT,MEAN_MOTION_DDOT,TLE_LINE0,TLE_LINE1,TLE_LINE2,SEMIMAJOR_AXIS,PERIOD,APOGEE,PERIGEE,DECAYED
52640.0,STARLINK-3977,PAYLOAD,2022-12-09 14:03:47,15.08820828,0.0002557,53.2156,183.7389,23.408,336.7028,0.00010422,1.3699999999999998e-05,0.0,0 STARLINK-3977,1 52640U 22052AU  22343.58596109  .00001370  00000-0  10422-3 0  9998,2 52640  53.2156 183.7389 0002557  23.4080 336.7028 15.08820828 32068,6917.939,95.439,541.573,538.035,0.0
52640.0,STARLINK-3977,PAYLOAD,2022-12-09 23:36:05,15.08834983,0.0002923,53.2157,181.9537,39.0454,321.0748,6.6209e-07,-2.78e-06,0.0,0 STARLINK-3977,1 52640U 22052AU  22343.98340055 -.00000278  00000-0  66209-6 0  9993,2 52640  53.2157 181.9537 0002923  39.0454 321.0748 15.08834983 32501,6917.896,95.438,541.783,537.739,0.0
52640.0,STARLINK-3977,PAYLOAD,2022-12-10 18:40:43,15.0883069,0.0003076,53.216,178.3865,39.2108,320.9106,0.00013643,1.883e-05,0.0,0 STARLINK-3977,1 52640U 22052AU  22344.77828343  .00001883  00000-0  13643-3 0  9995,2 52640  53.2160 178.3865 0003076  39.2108 320.9106 15.08830690 32245,6917.909000000002,95.438,541.9019999999998,537.646,0.0
52640.0,STARLINK-3977,PAYLOAD,2022-12-10 23:26:52,15.088348000000002,0.0002999,53.2159,177.4931,41.415,318.7069,0.00016045,2.266e-05,0.0,0 STARLINK-3977,1 52640U 22052AU  22344.97700156  .00002266  00000-0  16045-3 0  9993,2 52640  53.2159 177.4931 0002999  41.4150 318.7069 15.08834800 32275,6917.896,95.438,541.836,537.687,0.0
52640.0,STARLINK-3977,PAYLOAD,2022-12-11 18:31:30,15.08843893,0.0003003999999999,53.216,173.9247,44.2364,315.8868,0.0001473,2.057e-05,0.0,0 STARLINK-3977,1 52640U 22052AU  22345.77187753  .00002057  00000-0  14730-3 0  9991,2 52640  53.2160 173.9247 0003004  44.2364 315.8868 15.08843893 32776,6917.868,95.437,541.812,537.655,0.0
52640.0,STARLINK-3977,PAYLOAD,2022-12-11 20:06:53,15.08844299,0.0003025,53.2159,173.6274,43.8328,316.2903,0.00015217,2.134e-05,0.0,0 STARLINK-3977,1 52640U 22052AU  22345.83811765  .00002134  00000-0  15217-3 0  9992,2 52640  53.2159 173.6274 0003025  43.8328 316.2903 15.08844299 32405,6917.8669999999975,95.437,541.825,537.64,0.0
52640.0,STARLINK-3977,PAYLOAD,2022-12-12 13:36:08,15.08837678,0.000294,53.2165,170.3563,50.5481,309.5771,1.4612e-05,-5.6e-07,0.0,0 STARLINK-3977,1 52640U 22052AU  22346.56676461 -.00000056  00000-0  14612-4 0  9996,2 52640  53.2165 170.3563 0002940  50.5481 309.5771 15.08837678 32510,6917.887,95.438,541.786,537.719,0.0
52640.0,STARLINK-3977,PAYLOAD,2022-12-13 11:51:31,15.0884346,0.0002918999999999,53.216,166.1927,48.7834,311.3409,2.8691e-05,1.68e-06,0.0,0 STARLINK-3977,1 52640U 22052AU  22347.49412005  .00000168  00000-0  28691-4 0  9996,2 52640  53.2160 166.1927 0002919  48.7834 311.3409 15.08843460 32659,6917.87,95.437,541.754,537.715,0.0
52640.0,STARLINK-3977,PAYLOAD,2022-12-13 18:13:04,15.08846676,0.0003223,53.2161,165.0031,48.6899,311.437,3.0524e-05,1.97e-06,0.0,0 STARLINK-3977,1 52640U 22052AU  22347.75907798  .00000197  00000-0  30524-4 0  9993,2 52640  53.2161 165.0031 0003223  48.6899 311.4370 15.08846676 33070,6917.86,95.437,541.955,537.495,0.0
52640.0,STARLINK-3977,PAYLOAD,2022-12-13 19:48:27,15.08844869,0.0003095,53.2159,164.7058,47.911,312.2145,4.7652e-06,-2.13e-06,0.0,0 STARLINK-3977,1 52640U 22052AU  22347.82531925 -.00000213  00000-0  47652-5 0  9997,2 52640  53.2159 164.7058 0003095  47.9110 312.2145 15.08844869 32707,6917.866,95.437,541.872,537.589,0.0
52640.0,STARLINK-3977,PAYLOAD,2022-12-14 05:20:46,15.08847631,0.0002925,53.2164,162.9218,51.2368,308.8885,5.3646e-05,5.65e-06,0.0,0 STARLINK-3977,1 52640U 22052AU  22348.22275469  .00000565  00000-0  53646-4 0  9998,2 52640  53.2164 162.9218 0002925  51.2368 308.8885 15.08847631 32763,6917.857,95.437,541.746,537.6990000000002,0.0
52640.0,STARLINK-3977,PAYLOAD,2022-12-14 18:03:50,15.08847492,0.0003131,53.217,160.5436,47.3679,312.7577,0.00014198,1.972e-05,0.0,0 STARLINK-3977,1 52640U 22052AU  22348.75267186  .00001972  00000-0  14198-3 0  9994,2 52640  53.2170 160.5436 0003131  47.3679 312.7577 15.08847492 32843,6917.857,95.437,541.888,537.557,0.0
52640.0,STARLINK-3977,PAYLOAD,2022-12-14 22:50:01,15.08836169,0.0003094,53.2173,159.65200000000004,45.7269,314.3977,4.291899999999999e-05,3.94e-06,0.0,0 STARLINK-3977,1 52640U 22052AU  22348.95140198  .00000394  00000-0  42919-4 0  9999,2 52640  53.2173 159.6520 0003094  45.7269 314.3977 15.08836169 33251,6917.892,95.438,541.8969999999998,537.617,0.0
52640.0,STARLINK-3977,PAYLOAD,2022-12-15 11:33:06,15.08840861,0.0003083,53.2173,157.2722,48.2834,311.8421,6.0008e-05,6.67e-06,0.0,0 STARLINK-3977,1 52640U 22052AU  22349.48131974  .00000667  00000-0  60008-4 0  9992,2 52640  53.2173 157.2722 0003083  48.2834 311.8421 15.08840861 32959,6917.878000000002,95.438,541.876,537.61,0.0
52640.0,STARLINK-3977,PAYLOAD,2022-12-15 17:54:38,15.08845122,0.0003121,53.2176,156.0834,46.9992,313.1261,7.7805e-05,9.5e-06,0.0,0 STARLINK-3977,1 52640U 22052AU  22349.74627698  .00000950  00000-0  77805-4 0  9992,2 52640  53.2176 156.0834 0003121  46.9992 313.1261 15.08845122 33375,6917.865,95.437,541.889,537.571,0.0
52640.0,STARLINK-3977,PAYLOAD,2022-12-16 11:23:53,15.0883747,0.0002983,53.2168,152.8108,53.4345,306.6921,-3.763e-05,-8.88e-06,0.0,0 STARLINK-3977,1 52640U 22052AU  22350.47492061 -.00000888  00000-0 -37630-4 0  9992,2 52640  53.2168 152.8108 0002983  53.4345 306.6921 15.08837470 33483,6917.888000000001,95.438,541.817,537.69,0.0
52640.0,STARLINK-3977,PAYLOAD,2022-12-16 20:56:12,15.088284,0.0002945,53.2176,151.0279,49.2063,310.9184,0.00010031,1.308e-05,0.0,0 STARLINK-3977,1 52640U 22052AU  22350.87236568  .00001308  00000-0  10031-3 0  9995,2 52640  53.2176 151.0279 0002945  49.2063 310.9184 15.08828400 33167,6917.916,95.438,541.818,537.744,0.0
52640.0,STARLINK-3977,PAYLOAD,2022-12-17 09:39:17,15.08838404,0.0003058,53.2178,148.6488,49.3593,310.7665,9.9086e-05,1.289e-05,0.0,0 STARLINK-3977,1 52640U 22052AU  22351.40228146  .00001289  00000-0  99086-4 0  9994,2 52640  53.2178 148.6488 0003058  49.3593 310.7665 15.08838404 33244,6917.885,95.438,541.866,537.635,0.0
52640.0,STARLINK-3977,PAYLOAD,2022-12-17 17:36:12,15.08845117,0.0003064,53.2179,147.1621,49.3161,310.8097,7.4047e-05,8.900000000000001e-06,0.0,0 STARLINK-3977,1 52640U 22052AU  22351.73347765  .00000890  00000-0  74047-4 0  9996,2 52640  53.2179 147.1621 0003064  49.3161 310.8097 15.08845117 33672,6917.865,95.437,541.849,537.61,0.0
52640.0,STARLINK-3977,PAYLOAD,2022-12-18 03:08:31,15.08835967,0.0003037,53.2175,145.3784,48.7204,311.4049,-6.9015999999999984e-06,-3.99e-06,0.0,0 STARLINK-3977,1 52640U 22052AU  22352.13092577 -.00000399  00000-0 -69016-5 0  9996,2 52640  53.2175 145.3784 0003037  48.7204 311.4049 15.08835967 33732,6917.893,95.438,541.859,537.6569999999998,0.0
52640.0,STARLINK-3977,PAYLOAD,2022-12-18 11:05:27,15.0883309,0.0003013999999999,53.2178,143.8915,48.2778,311.8472,7.879399999999999e-05,9.65e-06,0.0,0 STARLINK-3977,1 52640U 22052AU  22352.46212719  .00000965  00000-0  78794-4 0  9993,2 52640  53.2178 143.8915 0003014  48.2778 311.8472 15.08833090 33403,6917.901999999999,95.438,541.852,537.681,0.0
52640.0,STARLINK-3977,PAYLOAD,2022-12-18 17:27:00,15.08836605,0.0003013,53.2177,142.7021,48.2885,311.8365,0.0001007,1.314e-05,0.0,0 STARLINK-3977,1 52640U 22052AU  22352.72708536  .00001314  00000-0  10070-3 0  9990,2 52640  53.2177 142.7021 0003013  48.2885 311.8365 15.08836605 33446,6917.891,95.438,541.84,537.6709999999998,0.0
52640.0,STARLINK-3977,PAYLOAD,2022-12-19 15:42:23,15.08846398,0.0003108,53.22,138.5397,51.7065,308.4207,7.8596e-05,9.63e-06,0.0,0 STARLINK-3977,1 52640U 22052AU  22353.65444011  .00000963  00000-0  78596-4 0  9995,2 52640  53.2200 138.5397 0003108  51.7065 308.4207 15.08846398 33960,6917.861,95.437,541.876,537.576,0.0
52640.0,STARLINK-3977,PAYLOAD,2022-12-19 17:17:46,15.08845076,0.0003123999999999,53.2197,138.2423,51.608,308.5192,5.9428e-05,6.57e-06,0.0,0 STARLINK-3977,1 52640U 22052AU  22353.72068103  .00000657  00000-0  59428-4 0  9990,2 52640  53.2197 138.2423 0003124  51.6080 308.5192 15.08845076 33591,6917.865,95.437,541.891,537.569,0.0
52640.0,STARLINK-3977,PAYLOAD,2022-12-20 10:47:01,15.08846679,0.0003069,53.2195,134.9718,52.0865,308.0404,0.00013082,1.794e-05,0.0,0 STARLINK-3977,1 52640U 22052AU  22354.44931719  .00001794  00000-0  13082-3 0  9990,2 52640  53.2195 134.9718 0003069  52.0865 308.0404 15.08846679 33707,6917.86,95.437,541.8480000000002,537.602,0.0
52640.0,STARLINK-3977,PAYLOAD,2022-12-20 15:33:11,15.08839125,0.0003017,53.2196,134.0782,51.2622,308.8639,1.8469e-05,5e-08,0.0,0 STARLINK-3977,1 52640U 22052AU  22354.64804450  .00000005  00000-0  18469-4 0  9992,2 52640  53.2196 134.0782 0003017  51.2622 308.8639 15.08839125 34117,6917.8830000000025,95.438,541.835,537.661,0.0
52640.0,STARLINK-3977,PAYLOAD,2022-12-21 09:02:25,15.08842634,0.0002908,53.2187,130.8066,50.4208,309.7041,2.0641e-05,4e-07,0.0,0 STARLINK-3977,1 52640U 22052AU  22355.37668060  .00000040  00000-0  20641-4 0  9992,2 52640  53.2187 130.8066 0002908  50.4208 309.7041 15.08842634 33840,6917.871999999999,95.437,541.749,537.726,0.0
52640.0,STARLINK-3977,PAYLOAD,2022-12-22 08:53:11,15.08841863,0.0002785,53.2193,126.3459,50.7542,309.3697,9.6266e-05,1.244e-05,0.0,0 STARLINK-3977,1 52640U 22052AU  22356.37027750  .00001244  00000-0  96266-4 0  9991,2 52640  53.2193 126.3459 0002785  50.7542 309.3697 15.08841863 34375,6917.875,95.437,541.6659999999998,537.813,0.0
52640.0,STARLINK-3977,PAYLOAD,2022-12-22 18:25:31,15.08837502,0.0003019,53.2185,124.5645,44.8114,315.3121,0.0001056,1.392e-05,0.0,0 STARLINK-3977,1 52640U 22052AU  22356.76771995  .00001392  00000-0  10560-3 0  9997,2 52640  53.2185 124.5645 0003019  44.8114 315.3121 15.08837502 34052,6917.888000000001,95.438,541.842,537.665,0.0
